INTELSAT 902 (IS-902)   
1 26900U 01039A   26182.50330962 -.00000277  00000+0  00000+0 0  9992
2 26900   6.1523  71.6085 0004276  27.0013 312.0253  1.00272416 90834
INTELSAT 904 (IS-904)   
1 27380U 02007A   26182.43579384 -.00000219  00000+0  00000+0 0  9992
2 27380   6.9534  69.0143 0006343  15.1246 320.7588  1.00271894 51907
DIRECTV 5 (TEMPO 1)     
1 27426U 02023A   26182.84784450 -.00000050  00000+0  00000+0 0  9991
2 27426   4.9131  75.1319 0003539  33.9193   5.9629  1.00271741 88274
INTELSAT 905 (IS-905)   
1 27438U 02027A   26182.77122265  .00000100  00000+0  00000+0 0  9995
2 27438   6.7880  69.6253 0004032  32.0997 318.5300  1.00272219 51500
GALAXY 3C (G-3C)        
1 27445U 02030A   26182.55484317 -.00000145  00000+0  00000+0 0  9992
2 27445   3.7679  77.7949 0001945  28.1791 278.5502  1.00272276 46631
INTELSAT 906 (IS-906)   
1 27513U 02041A   26182.81109766  .00000020  00000+0  00000+0 0  9992
2 27513   5.8387  72.7411 0004074   9.6610 193.5969  1.00270414 87174
GALAXY 13 (HORIZONS-1)  
1 27954U 03044A   26182.76853597  .00000142  00000+0  00000+0 0  9992
2 27954   1.4562  83.6779 0001694  12.2659 310.5171  1.00271906 46714
INTELSAT 10-02          
1 28358U 04022A   26182.95138187  .00000000  00000+0  00000+0 0  9993
2 28358   0.0383 267.9601 0000252 257.0879  96.4484  1.00272189 80700
DIRECTV 8               
1 28659U 05019A   26182.91730275  .00000000  00000+0  00000+0 0  9996
2 28659   0.0192  23.0904 0003324  87.3324  20.7290  1.00270577 77228
GALAXY 28 (G-28)        
1 28702U 05022A   26182.79302951 -.00000192  00000+0  00000+0 0  9994
2 28702   3.3344  78.7604 0002609  15.0071  84.4688  1.00271136 52120
GALAXY 16 (G-16)        
1 29236U 06023A   26182.92137610 -.00000116  00000+0  00000+0 0  9998
2 29236   0.0115  81.4534 0002773  14.8058  56.4067  1.00271722 73124
DIRECTV 9S              
1 29494U 06043A   26182.92094277 -.00000105  00000+0  00000+0 0  9995
2 29494   2.4567  80.7345 0005398  22.9938  46.5815  1.00271938 51533
GALAXY 17 (G-17)        
1 31307U 07016B   26182.92414944 -.00000198  00000+0  00000+0 0  9991
2 31307   3.0070  79.7231 0004030  20.4112  67.5204  1.00271341 69954
INTELSAT 11 (IS-11)     
1 32253U 07044B   26182.88182331  .00000094  00000+0  00000+0 0  9994
2 32253   3.6015  78.4988 0003434  88.2064 131.8359  0.99047891 68593
HORIZONS-2              
1 32388U 07063B   26182.95502575 -.00000244  00000+0  00000+0 0  9996
2 32388   2.6380  80.4539 0004063  12.2271  97.3030  1.00269497 67960
DIRECTV 11              
1 32729U 08013A   26182.63614639 -.00000115  00000+0  00000+0 0  9998
2 32729   0.0138 260.0771 0000360 160.7014 348.7399  1.00268968 45730
GALAXY 18 (G-18)        
1 32951U 08024A   26182.91652274  .00000036  00000+0  00000+0 0  9996
2 32951   0.0171  44.5007 0003191  61.3585  21.0499  1.00272001 46001
GALAXY 19 (G-19)        
1 33376U 08045A   26182.92180943 -.00000129  00000+0  00000+0 0  9995
2 33376   0.0516 250.8599 0002933 224.7899  39.1666  1.00271640 65050
FM-5                    
1 35493U 09034A   26182.92388944 -.00000189  00000+0  00000+0 0  9993
2 35493   0.0326 279.3525 0000826  69.3747 177.6737  1.00269984 46795
INTELSAT 14 (IS-14)     
1 36097U 09064A   26182.86083036 -.00000263  00000+0  00000+0 0  9997
2 36097   0.0240 293.8026 0002719 169.9581  81.0393  1.00269824 60755
INTELSAT 15 (IS-15)     
1 36106U 09067A   26182.90330861 -.00000175  00000+0  00000+0 0  9999
2 36106   0.0120 331.1918 0002525 128.9447 230.1469  1.00273159 41374
DIRECTV 12              
1 36131U 09075A   26182.92068277 -.00000093  00000+0  00000+0 0  9996
2 36131   0.0097  98.3621 0000329  18.4713  31.8553  1.00271256 46705
INTELSAT 16 (IS-16)     
1 36397U 10006A   26182.92588279 -.00000234  00000+0  00000+0 0  9992
2 36397   0.0099  36.9807 0002462  79.8089  60.3011  1.00272854 59808
XM-5                    
1 37185U 10053A   26182.91790942 -.00000012  00000+0  00000+0 0  9995
2 37185   0.0668 268.4827 0002638 286.8118 299.9137  1.00270594 57635
INTELSAT 17 (IS-17)     
1 37238U 10065B   26182.95441804  .00000000  00000+0  00000+0 0  9997
2 37238   0.0295  84.4606 0002693  37.3725 207.7338  1.00270653 53390
INTELSAT 28 (IS-28)     
1 37392U 11016A   26182.79216285 -.00000216  00000+0  00000+0 0  9990
2 37392   1.8419  82.4554 0003992  18.1963  72.6195  1.00270148 53436
INTELSAT 18 (IS-18)     
1 37834U 11056A   26182.83406444  .00000063  00000+0  00000+0 0  9997
2 37834   0.0144 319.5196 0002077 144.8551 295.7654  1.00271371 53956
INTELSAT 22 (IS-22)     
1 38098U 12011A   26182.96553049 -.00000048  00000+0  00000+0 0  9994
2 38098   0.0147  39.8333 0001703  55.7213 244.1390  1.00271302  7337
INTELSAT 19 (IS-19)     
1 38356U 12030A   26182.90258269 -.00000046  00000+0  00000+0 0  9990
2 38356   0.0181   8.8908 0003405 101.4609 300.5272  1.00271580 50595
INTELSAT 20 (IS-20)     
1 38740U 12043A   26182.24061653 -.00000014  00000+0  00000+0 0  9992
2 38740   0.0058  49.1526 0001542 129.2534 256.0073  1.00274019 50880
INTELSAT 21 (IS-21)     
1 38749U 12045A   26182.85823035 -.00000274  00000+0  00000+0 0  9998
2 38749   0.0304 279.0634 0001916 192.8891  58.9177  1.00273109 50674
